{
  "norad_id": 32954,
  "name": "COSMOS 2437",
  "history": [
    {
      "epoch": "2026-03-28T22:57:48.314880Z",
      "apogee_km": 1511.5013496299216,
      "perigee_km": 1478.3684712634358,
      "latitude_deg": 69.54822635556,
      "longitude_deg": 35.94967401712974,
      "height_km": 1492.924298429481,
      "semi_major_axis_km": 7873.071910446678,
      "eccentricity": 0.00210419,
      "inclination_deg": 82.5012,
      "raan_deg": 47.334,
      "arg_perigee_deg": 141.4619,
      "mean_anomaly_deg": 327.8256,
      "mean_motion_rev_day": 12.4275762
    },
    {
      "epoch": "2026-03-29T04:52:20.337888Z",
      "apogee_km": 1511.514901184104,
      "perigee_km": 1478.3598104568728,
      "latitude_deg": 49.310990295290004,
      "longitude_deg": -41.27903755087066,
      "height_km": 1486.3484609416155,
      "semi_major_axis_km": 7873.074355820489,
      "eccentricity": 0.0021056,
      "inclination_deg": 82.5012,
      "raan_deg": 47.181,
      "arg_perigee_deg": 140.9738,
      "mean_anomaly_deg": 349.274,
      "mean_motion_rev_day": 12.42757041
    },
    {
      "epoch": "2026-03-30T05:37:38.083584Z",
      "apogee_km": 1511.5430454209654,
      "perigee_km": 1478.3296980948662,
      "latitude_deg": 61.58189417842452,
      "longitude_deg": 148.51072522264224,
      "height_km": 1501.4764352907787,
      "semi_major_axis_km": 7873.073371757915,
      "eccentricity": 0.0021093,
      "inclination_deg": 82.5012,
      "raan_deg": 46.5396,
      "arg_perigee_deg": 138.7854,
      "mean_anomaly_deg": 283.8698,
      "mean_motion_rev_day": 12.42757274
    },
    {
      "epoch": "2026-03-30T07:36:53.145792Z",
      "apogee_km": 1511.546916058137,
      "perigee_km": 1478.323496117112,
      "latitude_deg": 71.30760201597522,
      "longitude_deg": 127.33312349402388,
      "height_km": 1500.3904354254503,
      "semi_major_axis_km": 7873.072206087624,
      "eccentricity": 0.00210994,
      "inclination_deg": 82.5013,
      "raan_deg": 46.4881,
      "arg_perigee_deg": 138.5793,
      "mean_anomaly_deg": 294.3965,
      "mean_motion_rev_day": 12.4275755
    },
    {
      "epoch": "2026-03-30T15:36:08.057664Z",
      "apogee_km": 1511.5566439888835,
      "perigee_km": 1478.313227585776,
      "latitude_deg": 58.13270308450661,
      "longitude_deg": 152.0452681890036,
      "height_km": 1488.7519872270948,
      "semi_major_axis_km": 7873.0719357873295,
      "eccentricity": 0.00211121,
      "inclination_deg": 82.5013,
      "raan_deg": 46.2812,
      "arg_perigee_deg": 137.8756,
      "mean_anomaly_deg": 343.3492,
      "mean_motion_rev_day": 12.42757614
    },
    {
      "epoch": "2026-03-30T22:51:51.696288Z",
      "apogee_km": 1511.559193130849,
      "perigee_km": 1478.3083808918163,
      "latitude_deg": 33.81720660561786,
      "longitude_deg": -120.17557299760674,
      "height_km": 1502.9695297689257,
      "semi_major_axis_km": 7873.070787011332,
      "eccentricity": 0.00211168,
      "inclination_deg": 82.5013,
      "raan_deg": 46.093,
      "arg_perigee_deg": 137.2428,
      "mean_anomaly_deg": 257.0814,
      "mean_motion_rev_day": 12.42757886
    },
    {
      "epoch": "2026-03-31T21:56:54.541824Z",
      "apogee_km": 1511.5770904390138,
      "perigee_km": 1478.2897487050632,
      "latitude_deg": 15.05642590281388,
      "longitude_deg": -110.99823723287547,
      "height_km": 1505.236847417564,
      "semi_major_axis_km": 7873.070419572038,
      "eccentricity": 0.002114,
      "inclination_deg": 82.5017,
      "raan_deg": 45.4949,
      "arg_perigee_deg": 135.1865,
      "mean_anomaly_deg": 240.2361,
      "mean_motion_rev_day": 12.42757973
    },
    {
      "epoch": "2026-04-01T21:20:42.737856Z",
      "apogee_km": 1511.6073339167224,
      "perigee_km": 1478.261726757135,
      "latitude_deg": 53.9357501102867,
      "longitude_deg": -95.17477214658493,
      "height_km": 1500.4002722110924,
      "semi_major_axis_km": 7873.071530336929,
      "eccentricity": 0.0021177,
      "inclination_deg": 82.5022,
      "raan_deg": 44.8888,
      "arg_perigee_deg": 133.1624,
      "mean_anomaly_deg": 281.6019,
      "mean_motion_rev_day": 12.4275771
    },
    {
      "epoch": "2026-04-02T20:41:49.265664Z",
      "apogee_km": 1511.6245743403697,
      "perigee_km": 1478.2427547227562,
      "latitude_deg": 81.33538120393867,
      "longitude_deg": -38.128045648671765,
      "height_km": 1496.682125147234,
      "semi_major_axis_km": 7873.070664531563,
      "eccentricity": 0.00212,
      "inclination_deg": 82.5026,
      "raan_deg": 44.284,
      "arg_perigee_deg": 131.0402,
      "mean_anomaly_deg": 314.6989,
      "mean_motion_rev_day": 12.42757915
    },
    {
      "epoch": "2026-04-02T22:45:22.993920Z",
      "apogee_km": 1511.6295714006228,
      "perigee_km": 1478.2420740198986,
      "latitude_deg": 69.36583601099282,
      "longitude_deg": 31.243280740794397,
      "height_km": 1491.3696331809774,
      "semi_major_axis_km": 7873.072822710261,
      "eccentricity": 0.00212036,
      "inclination_deg": 82.5026,
      "raan_deg": 44.2307,
      "arg_perigee_deg": 130.854,
      "mean_anomaly_deg": 338.5911,
      "mean_motion_rev_day": 12.42757404
    },
    {
      "epoch": "2026-04-03T21:39:13.682880Z",
      "apogee_km": 1511.643359507686,
      "perigee_km": 1478.2268921767609,
      "latitude_deg": 54.90607159038595,
      "longitude_deg": -102.65797750998244,
      "height_km": 1499.1157296003742,
      "semi_major_axis_km": 7873.072125842223,
      "eccentricity": 0.0021222,
      "inclination_deg": 82.5031,
      "raan_deg": 43.6379,
      "arg_perigee_deg": 128.8408,
      "mean_anomaly_deg": 286.9141,
      "mean_motion_rev_day": 12.42757569
    },
    {
      "epoch": "2026-04-04T07:50:30.905376Z",
      "apogee_km": 1511.6809985961427,
      "perigee_km": 1478.191778707238,
      "latitude_deg": 25.652003778488606,
      "longitude_deg": -90.5082772543658,
      "height_km": 1482.8391593620138,
      "semi_major_axis_km": 7873.07338865169,
      "eccentricity": 0.00212682,
      "inclination_deg": 82.5033,
      "raan_deg": 43.3743,
      "arg_perigee_deg": 127.9781,
      "mean_anomaly_deg": 26.0544,
      "mean_motion_rev_day": 12.4275727
    },
    {
      "epoch": "2026-04-05T14:51:37.463904Z",
      "apogee_km": 1511.6960474018715,
      "perigee_km": 1478.171881389796,
      "latitude_deg": 6.207432196302588,
      "longitude_deg": 164.92689724660306,
      "height_km": 1485.9080779010446,
      "semi_major_axis_km": 7873.0709643958335,
      "eccentricity": 0.00212904,
      "inclination_deg": 82.5039,
      "raan_deg": 42.5712,
      "arg_perigee_deg": 125.2036,
      "mean_anomaly_deg": 48.2802,
      "mean_motion_rev_day": 12.42757844
    },
    {
      "epoch": "2026-04-05T20:02:40.555104Z",
      "apogee_km": 1511.7014341624254,
      "perigee_km": 1478.1653036190974,
      "latitude_deg": 58.4726618268848,
      "longitude_deg": -80.04276463682216,
      "height_km": 1497.7809200646536,
      "semi_major_axis_km": 7873.070368890761,
      "eccentricity": 0.0021298,
      "inclination_deg": 82.5039,
      "raan_deg": 42.437,
      "arg_perigee_deg": 124.7509,
      "mean_anomaly_deg": 294.6666,
      "mean_motion_rev_day": 12.42757985
    },
    {
      "epoch": "2026-04-06T06:13:29.922240Z",
      "apogee_km": 1511.7212179847675,
      "perigee_km": 1478.155149246939,
      "latitude_deg": 23.423039098459956,
      "longitude_deg": -69.00604663760352,
      "height_km": 1483.433850706489,
      "semi_major_axis_km": 7873.075183615852,
      "eccentricity": 0.0021317,
      "inclination_deg": 82.504,
      "raan_deg": 42.1736,
      "arg_perigee_deg": 123.8716,
      "mean_anomaly_deg": 32.3793,
      "mean_motion_rev_day": 12.42756845
    },
    {
      "epoch": "2026-04-07T20:33:09.561024Z",
      "apogee_km": 1511.7502302688663,
      "perigee_km": 1478.1164737251356,
      "latitude_deg": 79.47192488720631,
      "longitude_deg": 31.97208684286109,
      "height_km": 1492.762412645775,
      "semi_major_axis_km": 7873.070351997001,
      "eccentricity": 0.002136,
      "inclination_deg": 82.5041,
      "raan_deg": 41.1813,
      "arg_perigee_deg": 120.5081,
      "mean_anomaly_deg": 337.0647,
      "mean_motion_rev_day": 12.42757989
    },
    {
      "epoch": "2026-04-08T13:53:28.459104Z",
      "apogee_km": 1511.7664900894833,
      "perigee_km": 1478.1045387083695,
      "latitude_deg": 82.28504046873054,
      "longitude_deg": 70.65328992883086,
      "height_km": 1494.0313597313302,
      "semi_major_axis_km": 7873.072514398927,
      "eccentricity": 0.00213779,
      "inclination_deg": 82.5042,
      "raan_deg": 40.7324,
      "arg_perigee_deg": 118.969,
      "mean_anomaly_deg": 329.1752,
      "mean_motion_rev_day": 12.42757477
    },
    {
      "epoch": "2026-04-09T20:53:04.835904Z",
      "apogee_km": 1511.7852484691293,
      "perigee_km": 1478.0822072972069,
      "latitude_deg": 75.19229599782753,
      "longitude_deg": 38.85748923476608,
      "height_km": 1491.3769534604958,
      "semi_major_axis_km": 7873.070727883168,
      "eccentricity": 0.0021404,
      "inclination_deg": 82.504,
      "raan_deg": 39.9298,
      "arg_perigee_deg": 116.2797,
      "mean_anomaly_deg": 346.6496,
      "mean_motion_rev_day": 12.427579
    },
    {
      "epoch": "2026-04-10T12:27:40.589856Z",
      "apogee_km": 1511.8048760597812,
      "perigee_km": 1478.06404101707,
      "latitude_deg": 54.15608189336439,
      "longitude_deg": -176.5875986856504,
      "height_km": 1487.1705801141395,
      "semi_major_axis_km": 7873.071458538426,
      "eccentricity": 0.0021428,
      "inclination_deg": 82.504,
      "raan_deg": 39.5263,
      "arg_perigee_deg": 114.9093,
      "mean_anomaly_deg": 10.2948,
      "mean_motion_rev_day": 12.42757727
    }
  ]
}